GLOBALSTAR M067         
1 32263U 07048A   25256.96205487 -.00000068  00000+0  21534-3 0  9998
2 32263  51.9718 136.1689 0001112 130.5902 334.3489 12.40677826820500
GLOBALSTAR M070         
1 32264U 07048B   25256.68334935 -.00000088  00000+0  86182-4 0  9992
2 32264  51.9735 218.9066 0000466  35.2098 136.4234 12.62322448824847
GLOBALSTAR M066         
1 32265U 07048C   25256.96032038 -.00000081  00000+0  11638-3 0  9999
2 32265  51.9580 130.8762 0004444 173.2862 288.8424 12.30376874826227
GLOBALSTAR M068         
1 32266U 07048D   25256.56447094 -.00000080  00000+0  13342-3 0  9991
2 32266  51.9903  32.8499 0000828  18.9435  61.2535 12.62828267828724
GLOBALSTAR M079         
1 37188U 10054A   25256.64964153 -.00000088  00000+0  86035-4 0  9997
2 37188  52.0020 230.4927 0000556  90.4457  80.7159 12.62266641687625
GLOBALSTAR M074         
1 37189U 10054B   25256.67637037 -.00000095  00000+0  50714-4 0  9992
2 37189  51.9997 229.7213 0000229  84.2241  87.4568 12.62271321688232
GLOBALSTAR M076         
1 37190U 10054C   25256.70264192 -.00000093  00000+0  57478-4 0  9998
2 37190  52.0013 229.8203 0000403 112.0199  59.0291 12.62265167687958
GLOBALSTAR M077         
1 37191U 10054D   25256.52887552 -.00000087  00000+0  91481-4 0  9995
2 37191  52.0065 187.2151 0000529  64.4272 107.1013 12.62323242688302
